HAWK-A                  
1 43765U 18099H   26068.67628545  .00008617  00000+0  36104-3 0  9995
2 43765  97.4051 122.2425 0034260 275.5523  84.1807 15.23231043397949
STARLINK-30610          
1 58082U 23160H   26068.35112743 -.00002157  00000+0 -70759-4 0  9991
2 58082  43.0023  79.8267 0001438 246.9548 113.1152 15.26733570132896
